#dP2024  2 22  0  0  0.00000000      96 __u+U IGS20 FIT  IAC
## 2302 345600.00000000   900.00000000 60362 0.0000000000000
+  119   C06C07C08C09C10C11C12C13C14C16C19C20C21C22C23C24C25
+        C26C27C28C29C30C32C33C34C35C36C37C38C39C40C41C42C43
+        C44C45C46E02E03E04E05E07E08E09E10E11E12E13E14E15E18
+        E19E21E24E25E26E27E30E31E33E34E36G01G02G03G04G05G06
+        G07G08G09G10G11G12G13G14G15G16G17G18G19G20G21G22G23
+        G24G25G26G27G28G29G30G31G32J02J03J04R01R02R03R04R05
+        R07R08R09R11R12R13R14R15R16R17R18R19R20R21R22R24R26
++         8  9  8  8  8  6  7  8  7  9  8  7  5  6  7  6  8
++         7  7  7  9  7  8  8  7  7  8  7  8  9  9  7  6  5
++         8  7  7  7  7  6  7  7  6  7  7  6  7  6  6  6  6
++         6  7  7  6  6  7  7  7  6  7  7  6  8  7  7  5  6
++         7  6  6  7  6  6  7  7  6  6  7  7  7  6  7  6  7
++         6  7  6  6  6  6  7  6  6  8  0  6  7  7  6  7  8
++         6  7  8  6  7  6  7  7  7  9  8  9  8  6  6  6  7
%c M  cc GPS ccc cccc cccc cccc cccc ccccc ccccc ccccc ccccc
%c cc cc ccc ccc cccc cccc cccc cccc ccccc ccccc ccccc ccccc
%f  0.0000000  0.000000000  0.00000000000  0.000000000000000
%f  0.0000000  0.000000000  0.00000000000  0.000000000000000
%i    0    0    0    0      0      0      0      0         0
%i    0    0    0    0      0      0      0      0         0
/* INFORMATION & ANALYSIS CENTER (IAC)      ULTRA-RAPID DATA
/* S/V CLOCKS ARE ALIGNED TO GNSS TIME                      
/* G:C1WC2W R:C1PC2P E:C1XC5X C:C2IC6I J:C1CC2S             
/* PCV:IGS20_2290 OL/AL:FES2004  NONE     YN ORB:CoN CLK:CoN
*  2024 02 22  0  0  0.00000000
PC06  -6741.453607  23727.228321  34251.690837 999999.999999
PC07 -17137.082208  36476.943136 -12644.056060 999999.999999
PC08  -2080.335718  37423.077399 -19090.526361     19.920328
PC09   2715.291470  26536.613310  33222.467737   -522.445992
PC10 -10921.689183  36636.052819 -18036.437532     75.299865
PC11 -23121.423745  -9193.842455  12708.229527 999999.999999
PC12  -4788.920494 -15324.673447  22863.557994    764.339302
PC13   3746.001097  40297.696692 -11121.406070    419.376112
PC14 -12587.230781  -9476.481761 -23012.288796    243.413215
PC16  -9563.990025  22274.679903  34758.179220 999999.999999
PC19  17335.985135   -525.191022  21884.636456   -924.714241
PC20   6959.070605  16717.676248  21257.548428   -185.953979
PC21   8667.504719 -25390.036094  -7611.595295   -961.771723
PC22  18379.755817 -18484.338113   9928.054137   -101.040041
PC23 -14291.663872   7942.585540  22609.742219 999999.999999
PC24 -13968.262714 -24174.543292   -159.536344    906.323047
PC25 -20163.265673 -10527.373679  16165.640017 999999.999999
PC26   -811.954629 -23031.893675 -15780.917254   -252.568708
PC27  -5400.089600  15680.908625 -22460.132069 999999.999999
PC28 -21892.767466   9844.816346 -14223.596175 999999.999999
PC29  27401.818872   2379.652215  -4740.961590    244.970747
PC30  14844.218632  13253.539536 -19581.963772    -28.172606
PC32  -8505.701169  25493.285994   7567.119724 999999.999999
PC33 -17326.194256    579.076911 -21864.345865 999999.999999
PC34 -16318.416048 -12678.959619  18730.066228 999999.999999
PC35  21633.618753 -10640.462153  14077.040119    428.098414
PC36  19911.597143  11412.045374 -15854.924881     -6.550691
PC37    -87.866405  22799.692076  16075.901526   -938.010260
PC38  -7505.709159  33206.116412 -24731.031604 999999.999999
PC39 -16213.640220  19780.894162  33537.412130 999999.999999
PC40 -24819.666258  32212.131326 -11658.539461 999999.999999
PC41 -18491.597428  18008.035147 -10568.728500 999999.999999
PC42  -5787.266693 -17961.492352 -20500.808492   -452.331935
PC43 -27157.238670  -3035.813552   5581.671232 999999.999999
PC44   5050.433471 -15988.590217  22297.830361    391.651896
PC45  14078.102262  -8081.686943 -22708.323272    -71.576798
PC46  14436.223182  23843.889351   -776.073747   -125.774808
PE02 -11405.970014  23224.535787  14347.101652 999999.999999
PE03 -20756.976726  18471.566893  10218.443741 999999.999999
PE04   1646.322455 -18719.110567 -22861.484205   -332.838976
PE05 -27452.002521   7446.021531  -8187.579826 999999.999999
PE07  17819.059633   8323.134799  22126.822534   -105.030833
PE08  -2480.477344  18816.257803  22719.931095   -227.609475
PE09 -17680.115124  -8268.222816 -22252.970879   -344.614152
PE10 -17526.405792 -20626.612222  11976.899566   -603.775347
PE11 -23994.404694 -17213.776113   1858.999426 999999.999999
PE12  -9022.563081 -20712.544338  19113.264582   -916.574796
PE13  23739.741978  17510.317341  -2536.198086    -20.266720
PE14 -23972.479209  -2908.409637  14897.665711 999999.999999
PE15   8570.407965  20568.934230 -19481.705008    -87.147625
PE18  14687.129460  12815.075141 -20838.130095    353.732499
PE19  22365.722788 -17536.665911  -8268.935843   -569.457636
PE21  16841.700352  -4408.897219 -23948.603692   -580.240322
PE24 -12501.439286 -18250.043330  19657.079733   -611.382832
PE25 -16854.002599   3932.312783  24008.575532 999999.999999
PE26  24620.557530   3669.789222  16030.896594    375.661788
PE27  12715.888948  17805.116893 -19936.508680   -280.674563
PE30    924.318108  29304.708074  -4022.379204    -21.440366
PE31  -1135.580587 -29281.156364   4210.096894    -16.552958
PE33  11928.207069 -11135.930319  24702.822625      7.950206
PE34 -11386.680562  11549.349901 -24760.612885 999999.999999
PE36 -24778.212125  -4274.449464 -15598.846558 999999.999999
PG01  23358.462047  12240.486148   4100.530428    170.538048
PG02  22069.767461  14410.722012  -3754.957101   -481.753801
PG03  11920.474089  14391.721293  18780.453961    208.092459
PG04  18060.019412   5689.455806  18694.465570    297.518959
PG05  -6824.541840 -23785.729664  -9693.391302   -162.695373
PG06   7676.987738 -12430.027133  22247.883428    397.703697
PG07  22556.601793   2753.738357 -13635.351174    -67.564215
PG08  10816.836726  11403.858356 -21546.005969 999999.999999
PG09  24176.319775  -6047.685573   9188.188716    100.107209
PG10 -10713.101240  18851.400030 -14908.044572 999999.999999
PG11  -4348.660166 -18630.912704  18468.448265   -583.705543
PG12 -10992.575532 -15670.461341  18154.843757   -480.292836
PG13   -330.369552 -15599.992071 -21667.271996    627.691167
PG14  13356.204753 -15204.993044 -17078.970258    331.940519
PG15 -12052.418001 -10875.061388 -21530.769619    130.159741
PG16    212.717147  25892.097934  -5024.278734   -357.440713
PG17  22746.073260 -13353.088390   4181.872101    716.221140
PG18 -21644.423507  -1724.219733 -15406.554888 999999.999999
PG19  17197.621730 -15779.639033  12139.989865    443.964545
PG20   -738.620750 -26354.032447   3942.057519    386.612533
PG21  19362.155046  16608.761959  -8535.952463    134.068444
PG22  10382.033057 -21961.889180 -10648.192947     27.376826
PG23 -14434.171455   6432.464852 -21292.254690 999999.999999
PG24 -20515.595029 -15996.993358  -6755.937330 999999.999999
PG25 -15052.749614  -3982.371874  21200.975606 999999.999999
PG26  -4321.755316  24998.837310   7044.749143    187.677033
PG27  -2499.658096  17233.871927 -20205.777001 999999.999999
PG28 -10296.676354  11447.871567  21620.270848   -139.089032
PG29 -24247.396676   2604.585264  10594.562877 999999.999999
PG30  15978.851501  -7213.241502 -19892.637342   -429.468055
PG31   -979.864976  16657.312103  20362.276288   -227.841424
PG32 -20063.844474  16005.323036   6599.609301 999999.999999
PJ02 -30307.996026  25249.175499  19995.337564 999999.999999
PJ03 -28225.959688  16193.900369 -22186.285069 999999.999999
PJ04 -22573.294782  35102.228120   -898.645938 999999.999999
PR01 -13956.774619  20884.974125   4485.057326 999999.999999
PR02  -2464.295759  16594.367719  19238.528391    -22.515831
PR03  11164.276613   3346.154437  22747.603369     94.967079
PR04  18220.476884 -11321.810941  13847.422060    224.456269
PR05  15725.629063 -19938.932316  -2529.207678    127.280335
PR07 -11632.150995  -2616.448063 -22497.903946     76.349094
PR08 -18180.477421  11640.894264 -13495.865706 999999.999999
PR09  -8180.448755 -23987.161362  -2478.534929    171.299235
PR11 -11819.338500   -948.033163  22587.854188 999999.999999
PR12  -2731.921080  17772.709712  18102.383998     37.002132
PR13   6659.065806  24127.707657   4883.482098    -44.590822
PR14  13488.501683  16481.970084 -14047.025032     26.088882
PR15  11464.574084   -582.758445 -22767.219660     81.986498
PR16   2690.160106 -17526.549752 -18320.243783     23.456533
PR17  22856.016833   7965.965334  -7989.889109     63.167164
PR18  24037.427502    805.634493   8600.021042    128.581394
PR19  14624.305621  -5820.460232  20075.794559   -266.697974
PR20  -7468.664705 -11543.246521  21484.281128   -108.650897
PR21 -22931.639406  -8046.647796   7782.868965 999999.999999
PR22 -23646.676927   -779.630311  -9483.141522 999999.999999
PR24   8509.046216  11658.356155 -21011.178661    -44.879718
PR26 -17991.495291  11018.791773 -14329.313805 999999.999999
EOF
